[
    {
      "citiesOrTowns": ["Algiers","Oran","Constantine","Annaba","Blida","SÃ©tif","Tlemcen","BÃ©jaÃ¯a","Batna","Djelfa"],
      "emoji": "ðŸ‡©ðŸ‡¿",
      "name": "Algeria",
      "phoneCode": "+213"
    },
    {
      "citiesOrTowns": ["Luanda", "Huambo","Lobito","Benguela","Cabinda","Soyo",  "Ondjiva", "Lubango", "Malanje", "Namibe"],
      "emoji": "ðŸ‡¦ðŸ‡´",
      "name": "Angola",
      "phoneCode": "+244"
    },
    {
      "citiesOrTowns": ["Porto-Novo",  "Cotonou", "Parakou", "Djougou","Natitingou","Abomey-Calavi","Bohicon","Kandi","Ouidah","Savalou"],
      "emoji": "ðŸ‡§ðŸ‡¯",
      "name": "Benin",
      "phoneCode": "+229"
    },
    {
      "citiesOrTowns": [],
      "emoji": "ðŸ‡§ðŸ‡¼",
      "name": "Botswana",
      "phoneCode": "+267"
    },
    {
      "citiesOrTowns": [],
      "emoji": "ðŸ‡§ðŸ‡«",
      "name": "Burkina Faso",
      "phoneCode": "+226"
    },
    {
      "citiesOrTowns": [],
      "emoji": "ðŸ‡§ðŸ‡®",
      "name": "Burundi",
      "phoneCode": "+257"
    },
    {
      "citiesOrTowns": [
        "YaoundÃ©", "Douala", "Bamenda", "Bafoussam", "Garoua", "Maroua", "NgaoundÃ©rÃ©", "Nkongsamba", "Buea", "Limbe", "Kumba", "Bertoua", "EdÃ©a", "Loum", "Dschang"
      ],
      "emoji": "ðŸ‡¨ðŸ‡²",
      "name": "Cameroon",
      "phoneCode": "+237"
    },
    {
      "citiesOrTowns": [],
      "emoji": "ðŸ‡¨ðŸ‡»",
      "name": "Cape Verde",
      "phoneCode": "+238"
    },
    {
      "citiesOrTowns": [],
      "emoji": "ðŸ‡¨ðŸ‡«",
      "name": "Central African Republic",
      "phoneCode": "+236"
    },
    {
      "citiesOrTowns": [],
      "emoji": "ðŸ‡¹ðŸ‡©",
      "name": "Chad",
      "phoneCode": "+235"
    },
    {
      "citiesOrTowns": [],
      "emoji": "ðŸ‡°ðŸ‡²",
      "name": "Comoros",
      "phoneCode": "+269"
    },
    {
      "citiesOrTowns": [],
      "emoji": "ðŸ‡¨ðŸ‡©",
      "name": "DR Congo",
      "phoneCode": "+243"
    },
    {
      "citiesOrTowns": [],
      "emoji": "ðŸ‡¨ðŸ‡¬",
      "name": "Republic of the Congo",
      "phoneCode": "+242"
    },
    {
      "citiesOrTowns": [],
      "emoji": "ðŸ‡©ðŸ‡¯",
      "name": "Djibouti",
      "phoneCode": "+253"
    },
    {
      "citiesOrTowns": [],
      "emoji": "ðŸ‡ªðŸ‡¬",
      "name": "Egypt",
      "phoneCode": "+20"
    },
    {
      "citiesOrTowns": [],
      "emoji": "ðŸ‡¬ðŸ‡¶",
      "name": "Equatorial Guinea",
      "phoneCode": "+240"
    },
    {
      "citiesOrTowns": [],
      "emoji": "ðŸ‡ªðŸ‡·",
      "name": "Eritrea",
      "phoneCode": "+291"
    },
    {
      "citiesOrTowns": [],
      "emoji": "ðŸ‡¸ðŸ‡¿",
      "name": "Eswatini",
      "phoneCode": "+268"
    },
    {
      "citiesOrTowns": [],
      "emoji": "ðŸ‡ªðŸ‡¹",
      "name": "Ethiopia",
      "phoneCode": "+251"
    },
    {
      "citiesOrTowns": [],
      "emoji": "ðŸ‡¬ðŸ‡¦",
      "name": "Gabon",
      "phoneCode": "+241"
    },
    {
      "citiesOrTowns": [],
      "emoji": "ðŸ‡¬ðŸ‡²",
      "name": "Gambia",
      "phoneCode": "+220"
    },
    {
      "citiesOrTowns": [],
      "emoji": "ðŸ‡¬ðŸ‡­",
      "name": "Ghana",
      "phoneCode": "+233"
    },
    {
      "citiesOrTowns": [],
      "emoji": "ðŸ‡¬ðŸ‡³",
      "name": "Guinea",
      "phoneCode": "+224"
    },
    {
      "citiesOrTowns": [],
      "emoji": "ðŸ‡¬ðŸ‡¼",
      "name": "Guinea-Bissau",
      "phoneCode": "+245"
    },
    {
      "citiesOrTowns": [],
      "emoji": "ðŸ‡¨ðŸ‡®",
      "name": "Ivory Coast",
      "phoneCode": "+225"
    },
    {
      "citiesOrTowns": [],
      "emoji": "ðŸ‡°ðŸ‡ª",
      "name": "Kenya",
      "phoneCode": "+254"
    },
    {
      "citiesOrTowns": [],
      "emoji": "ðŸ‡±ðŸ‡¸",
      "name": "Lesotho",
      "phoneCode": "+266"
    },
    {
      "citiesOrTowns": [],
      "emoji": "ðŸ‡±ðŸ‡·",
      "name": "Liberia",
      "phoneCode": "+231"
    },
    {
      "citiesOrTowns": [],
      "emoji": "ðŸ‡±ðŸ‡¾",
      "name": "Libya",
      "phoneCode": "+218"
    },
    {
      "citiesOrTowns": [],
      "emoji": "ðŸ‡²ðŸ‡¬",
      "name": "Madagascar",
      "phoneCode": "+261"
    },
    {
      "citiesOrTowns": [],
      "emoji": "ðŸ‡²ðŸ‡¼",
      "name": "Malawi",
      "phoneCode": "+265"
    },
    {
      "citiesOrTowns": [],
      "emoji": "ðŸ‡²ðŸ‡±",
      "name": "Mali",
      "phoneCode": "+223"
    },
    {
      "citiesOrTowns": [],
      "emoji": "ðŸ‡²ðŸ‡·",
      "name": "Mauritania",
      "phoneCode": "+222"
    },
    {
      "citiesOrTowns": [],
      "emoji": "ðŸ‡²ðŸ‡º",
      "name": "Mauritius",
      "phoneCode": "+230"
    },
    {
      "citiesOrTowns": [],
      "emoji": "ðŸ‡²ðŸ‡¦",
      "name": "Morocco",
      "phoneCode": "+212"
    },
    {
      "citiesOrTowns": [],
      "emoji": "ðŸ‡²ðŸ‡¿",
      "name": "Mozambique",
      "phoneCode": "+258"
    },
    {
      "citiesOrTowns": [],
      "emoji": "ðŸ‡³ðŸ‡¦",
      "name": "Namibia",
      "phoneCode": "+264"
    },
    {
      "citiesOrTowns": [],
      "emoji": "ðŸ‡³ðŸ‡ª",
      "name": "Niger",
      "phoneCode": "+227"
    },
    {
      "citiesOrTowns": [ "Lagos","Kano","Ibadan","Abuja","Port Harcourt","Benin City","Jos","Kaduna","Aba","Maiduguri","Ilorin","Onitsha","Warri","Owerri","Akure"],
      "emoji": "ðŸ‡³ðŸ‡¬",
      "name": "Nigeria",
      "phoneCode": "+234"
    },
    {
      "citiesOrTowns": [],
      "emoji": "ðŸ‡·ðŸ‡¼",
      "name": "Rwanda",
      "phoneCode": "+250"
    },
    {
      "citiesOrTowns": [],
      "emoji": "ðŸ‡¸ðŸ‡¹",
      "name": "Sao TomÃ© and Principe",
      "phoneCode": "+239"
    },
    {
      "citiesOrTowns": [],
      "emoji": "ðŸ‡¸ðŸ‡³",
      "name": "Senegal",
      "phoneCode": "+221"
    },
    {
      "citiesOrTowns": [],
      "emoji": "ðŸ‡¸ðŸ‡¨",
      "name": "Seychelles",
      "phoneCode": "+248"
    },
    {
      "citiesOrTowns": [],
      "emoji": "ðŸ‡¸ðŸ‡±",
      "name": "Sierra Leone",
      "phoneCode": "+232"
    },
    {
      "citiesOrTowns": [],
      "emoji": "ðŸ‡¸ðŸ‡´",
      "name": "Somalia",
      "phoneCode": "+252"
    },
    {
      "citiesOrTowns": [],
      "emoji": "ðŸ‡¿ðŸ‡¦",
      "name": "South Africa",
      "phoneCode": "+27"
    },
    {
      "citiesOrTowns": [],
      "emoji": "ðŸ‡¸ðŸ‡¸",
      "name": "South Sudan",
      "phoneCode": "+211"
    },
    {
      "citiesOrTowns": [],
      "emoji": "ðŸ‡¸ðŸ‡©",
      "name": "Sudan",
      "phoneCode": "+249"
    },
    {
      "citiesOrTowns": [],
      "emoji": "ðŸ‡¹ðŸ‡¿",
      "name": "Tanzania",
      "phoneCode": "+255"
    },
    {
      "citiesOrTowns": [],
      "emoji": "ðŸ‡¹ðŸ‡¬",
      "name": "Togo",
      "phoneCode": "+228"
    },
    {
      "citiesOrTowns": [],
      "emoji": "ðŸ‡¹ðŸ‡³",
      "name": "Tunisia",
      "phoneCode": "+216"
    },
    {
      "citiesOrTowns": [],
      "emoji": "ðŸ‡ºðŸ‡¬",
      "name": "Uganda",
      "phoneCode": "+256"
    },
    {
      "citiesOrTowns": [],
      "emoji": "ðŸ‡¿ðŸ‡²",
      "name": "Zambia",
      "phoneCode": "+260"
    },
    {
      "citiesOrTowns": [],
      "emoji": "ðŸ‡¿ðŸ‡¼",
      "name": "Zimbabwe",
      "phoneCode": "+263"
    }
  ]
  